[Satellite]
VERSION=1.1
NAME=O3B FM6
NICKNAME=O3B FM6
TLE1=1 40081U 14038C   17186.07359687 -.00000027  00000-0  00000-0 0  9997
TLE2=2 40081   0.0434 359.5595 0003456 115.8546 244.6203  5.00115029 54435
